[{"OBJECT_NAME":"ONEWEB-0224","OBJECT_ID":"2021-045AD","EPOCH":"2026-03-09T14:34:31.094112","MEAN_MOTION":13.15549294,"ECCENTRICITY":0.0002496,"INCLINATION":87.8939,"RA_OF_ASC_NODE":279.1122,"ARG_OF_PERICENTER":87.3157,"MEAN_ANOMALY":272.8258,"EPHEMERIS_TYPE":0,"CLASSIFICATION_TYPE":"U","NORAD_CAT_ID":48794,"ELEMENT_SET_NO":999,"REV_AT_EPOCH":23118,"BSTAR":-0.00019694,"MEAN_MOTION_DOT":-6.1e-7,"MEAN_MOTION_DDOT":0},{"OBJECT_NAME":"OSCAR 24","OBJECT_ID":"1985-066B","EPOCH":"2026-03-09T14:52:42.180960","MEAN_MOTION":13.35952781,"ECCENTRICITY":0.0168053,"INCLINATION":90.1683,"RA_OF_ASC_NODE":93.8019,"ARG_OF_PERICENTER":204.5104,"MEAN_ANOMALY":279.6365,"EPHEMERIS_TYPE":0,"CLASSIFICATION_TYPE":"U","NORAD_CAT_ID":15936,"ELEMENT_SET_NO":999,"REV_AT_EPOCH":97803,"BSTAR":0.00013112,"MEAN_MOTION_DOT":8.1e-7,"MEAN_MOTION_DDOT":0}]
